[Satellite]
VERSION=1.1
NAME=GSAT0104 (GALILEO-FM4)
NICKNAME=GSAT0104 (GALILEO-FM4)
TLE1=1 38858U 12055B   17185.78793659  .00000077  00000-0  00000-0 0  9995
TLE2=2 38858  54.9103 191.5427 0004451 252.5776 107.4054  1.70473946 29422
